CALSPHERE 1             
1 00900U 64063C   20125.51377522  .00000226  00000-0  23293-3 0  9992
2 00900  90.1574  27.6827 0026049 184.0125 229.1572 13.73365778764422
CALSPHERE 2             
1 00902U 64063E   20125.58536064 -.00000006  00000-0 -22021-4 0  9996
2 00902  90.1687  30.3061 0016638 230.4024 246.4290 13.52682643554153
LCS 1                   
1 01361U 65034C   20125.51797874  .00000010  00000-0  15218-3 0  9998
2 01361  32.1413  82.8519 0004857 321.2496  38.7653  9.89297133988571
TEMPSAT 1               
1 01512U 65065E   20125.58630047  .00000004  00000-0 -11592-4 0  9991
2 01512  89.8771 226.6378 0070940  44.6864 330.5737 13.33427099662246
CALSPHERE 4(A)          
1 01520U 65065H   20125.54080769  .00000068  00000-0  11630-3 0  9997
2 01520  90.0312 128.9795 0068051 286.4134 194.2983 13.35811912664741
OPS 5712 (P/L 160)      
1 02826U 67053A   20125.58535241  .00000460  00000-0  13724-3 0  9992
2 02826  69.9275 301.6233 0005680 343.5470  16.5478 14.49054445740586
OPS 5712 (P/L 153)      
1 02874U 67053H   20125.57740811 -.00000051  00000-0  18182-5 0  9997
2 02874  69.9744 222.6307 0009355 229.3701 130.6592 13.96347420694835
SURCAL 150B             
1 02909U 67053J   20125.55323631  .00000687  00000-0  15139-3 0  9992
2 02909  69.9477 327.1943 0002548  44.4008 315.7336 14.61713029750466
RIGIDSPHERE 2 (LCS 4)   
1 05398U 71067E   20125.56093589  .00000116  00000-0  34216-4 0  9999
2 05398  87.6271 236.2594 0065182  59.0018 301.7559 14.33879602553358
